{
  "norad_id": 66419,
  "name": "HULIANWANG DIGUI-103",
  "history": [
    {
      "epoch": "2026-03-28T21:19:52.569696Z",
      "apogee_km": 1149.646735995083,
      "perigee_km": 1148.8941457991423,
      "latitude_deg": 7.5344178066888655e-06,
      "longitude_deg": 77.08258586441055,
      "height_km": 1150.1520800807496,
      "semi_major_axis_km": 7527.407440897113,
      "eccentricity": 4.999e-05,
      "inclination_deg": 49.9997,
      "raan_deg": 223.3544,
      "arg_perigee_deg": 183.2173,
      "mean_anomaly_deg": 176.8696,
      "mean_motion_rev_day": 13.29335571
    },
    {
      "epoch": "2026-03-29T04:32:54.393216Z",
      "apogee_km": 1149.6458357909833,
      "perigee_km": 1148.8946005506095,
      "latitude_deg": -8.170840047074928e-06,
      "longitude_deg": -32.55002396517504,
      "height_km": 1150.1503573382786,
      "semi_major_axis_km": 7527.407218170796,
      "eccentricity": 4.99e-05,
      "inclination_deg": 49.9998,
      "raan_deg": 222.2758,
      "arg_perigee_deg": 185.0285,
      "mean_anomaly_deg": 175.0582,
      "mean_motion_rev_day": 13.2933563
    },
    {
      "epoch": "2026-03-30T04:00:15.317280Z",
      "apogee_km": 1149.6530458500047,
      "perigee_km": 1148.8866052870253,
      "latitude_deg": 2.2145879149632243e-05,
      "longitude_deg": -28.855977630598204,
      "height_km": 1150.1529168009245,
      "semi_major_axis_km": 7527.406825568515,
      "eccentricity": 5.091e-05,
      "inclination_deg": 49.9998,
      "raan_deg": 218.7703,
      "arg_perigee_deg": 190.275,
      "mean_anomaly_deg": 169.8112,
      "mean_motion_rev_day": 13.29335734
    },
    {
      "epoch": "2026-03-30T14:49:48.047808Z",
      "apogee_km": 1149.6641373342554,
      "perigee_km": 1148.8754156522136,
      "latitude_deg": -4.079350723556381e-05,
      "longitude_deg": 166.69509504417974,
      "height_km": 1150.159955683904,
      "semi_major_axis_km": 7527.406776493234,
      "eccentricity": 5.239e-05,
      "inclination_deg": 49.9998,
      "raan_deg": 217.1524,
      "arg_perigee_deg": 193.0837,
      "mean_anomaly_deg": 167.0021,
      "mean_motion_rev_day": 13.29335747
    },
    {
      "epoch": "2026-03-30T18:26:18.960000Z",
      "apogee_km": 1149.661961706428,
      "perigee_km": 1148.8774553792637,
      "latitude_deg": 1.3487020181485524e-05,
      "longitude_deg": 111.87884034256199,
      "height_km": 1150.1566133498513,
      "semi_major_axis_km": 7527.406708542846,
      "eccentricity": 5.211e-05,
      "inclination_deg": 49.9998,
      "raan_deg": 216.6131,
      "arg_perigee_deg": 193.8499,
      "mean_anomaly_deg": 166.2359,
      "mean_motion_rev_day": 13.29335765
    },
    {
      "epoch": "2026-03-31T17:53:39.878016Z",
      "apogee_km": 1149.6660140287004,
      "perigee_km": 1148.8726254026033,
      "latitude_deg": 3.3298843435282843e-05,
      "longitude_deg": 115.57300388620877,
      "height_km": 1150.152929519888,
      "semi_major_axis_km": 7527.406319715652,
      "eccentricity": 5.27e-05,
      "inclination_deg": 49.9998,
      "raan_deg": 213.1077,
      "arg_perigee_deg": 197.8895,
      "mean_anomaly_deg": 162.1959,
      "mean_motion_rev_day": 13.29335868
    },
    {
      "epoch": "2026-04-01T19:09:16.241760Z",
      "apogee_km": 1149.6754749875936,
      "perigee_km": 1148.8625151401275,
      "latitude_deg": 2.087538255673023e-05,
      "longitude_deg": 91.8587837684457,
      "height_km": 1150.1487268137016,
      "semi_major_axis_km": 7527.40599506386,
      "eccentricity": 5.4e-05,
      "inclination_deg": 49.9998,
      "raan_deg": 209.3324,
      "arg_perigee_deg": 203.2116,
      "mean_anomaly_deg": 156.8732,
      "mean_motion_rev_day": 13.29335954
    },
    {
      "epoch": "2026-04-02T18:36:37.153728Z",
      "apogee_km": 1149.6801712592196,
      "perigee_km": 1148.8572752655537,
      "latitude_deg": -3.594979733465938e-05,
      "longitude_deg": 95.55270807778933,
      "height_km": 1150.140812733879,
      "semi_major_axis_km": 7527.405723262386,
      "eccentricity": 5.466e-05,
      "inclination_deg": 49.9998,
      "raan_deg": 205.8268,
      "arg_perigee_deg": 207.2189,
      "mean_anomaly_deg": 152.8654,
      "mean_motion_rev_day": 13.29336026
    },
    {
      "epoch": "2026-04-03T16:15:42.606144Z",
      "apogee_km": 1149.6783250859462,
      "perigee_km": 1148.8578379320616,
      "latitude_deg": 3.148344146077802e-05,
      "longitude_deg": 126.6550499723913,
      "height_km": 1150.128455864075,
      "semi_major_axis_km": 7527.405081509003,
      "eccentricity": 5.45e-05,
      "inclination_deg": 49.9998,
      "raan_deg": 202.591,
      "arg_perigee_deg": 210.3141,
      "mean_anomaly_deg": 149.77,
      "mean_motion_rev_day": 13.29336196
    },
    {
      "epoch": "2026-04-04T19:19:34.415616Z",
      "apogee_km": 1149.688731319996,
      "perigee_km": 1148.8471674466555,
      "latitude_deg": -2.9617155731734472e-05,
      "longitude_deg": 75.53283030962208,
      "height_km": 1150.1143077440304,
      "semi_major_axis_km": 7527.404949383325,
      "eccentricity": 5.59e-05,
      "inclination_deg": 49.9999,
      "raan_deg": 198.5462,
      "arg_perigee_deg": 216.0838,
      "mean_anomaly_deg": 143.9996,
      "mean_motion_rev_day": 13.29336231
    },
    {
      "epoch": "2026-04-05T13:22:08.948928Z",
      "apogee_km": 1149.6925349358635,
      "perigee_km": 1148.8423898758792,
      "latitude_deg": 2.582323970819543e-06,
      "longitude_deg": 161.4514705705392,
      "height_km": 1150.1018835824946,
      "semi_major_axis_km": 7527.404462405871,
      "eccentricity": 5.647e-05,
      "inclination_deg": 49.9999,
      "raan_deg": 195.8497,
      "arg_perigee_deg": 219.4799,
      "mean_anomaly_deg": 140.6032,
      "mean_motion_rev_day": 13.2933636
    },
    {
      "epoch": "2026-04-05T18:46:55.306848Z",
      "apogee_km": 1149.694205835166,
      "perigee_km": 1148.840598175978,
      "latitude_deg": 2.1534721309855795e-05,
      "longitude_deg": 79.22702902106072,
      "height_km": 1150.0972084461964,
      "semi_major_axis_km": 7527.404402005572,
      "eccentricity": 5.67e-05,
      "inclination_deg": 49.9999,
      "raan_deg": 195.0407,
      "arg_perigee_deg": 220.7222,
      "mean_anomaly_deg": 139.3608,
      "mean_motion_rev_day": 13.29336376
    },
    {
      "epoch": "2026-04-06T05:36:28.019232Z",
      "apogee_km": 1149.6976108901044,
      "perigee_km": 1148.8364758675416,
      "latitude_deg": 5.59049620611184e-05,
      "longitude_deg": -85.22174275050985,
      "height_km": 1150.0875020450953,
      "semi_major_axis_km": 7527.404043378822,
      "eccentricity": 5.72e-05,
      "inclination_deg": 49.9999,
      "raan_deg": 193.4228,
      "arg_perigee_deg": 223.1554,
      "mean_anomaly_deg": 136.9274,
      "mean_motion_rev_day": 13.29336471
    },
    {
      "epoch": "2026-04-07T17:41:37.040928Z",
      "apogee_km": 1149.713889503053,
      "perigee_km": 1148.8181285449782,
      "latitude_deg": 9.928370206318845e-06,
      "longitude_deg": 86.61573164148291,
      "height_km": 1150.0603363897687,
      "semi_major_axis_km": 7527.403009024015,
      "eccentricity": 5.95e-05,
      "inclination_deg": 49.9999,
      "raan_deg": 188.0299,
      "arg_perigee_deg": 230.0001,
      "mean_anomaly_deg": 130.0819,
      "mean_motion_rev_day": 13.29336745
    },
    {
      "epoch": "2026-04-08T15:20:42.446688Z",
      "apogee_km": 1149.7184692006194,
      "perigee_km": 1148.8130731953006,
      "latitude_deg": 1.2447176668782769e-05,
      "longitude_deg": 117.71821142490661,
      "height_km": 1150.0427329214374,
      "semi_major_axis_km": 7527.40277119796,
      "eccentricity": 6.014e-05,
      "inclination_deg": 49.9999,
      "raan_deg": 184.7941,
      "arg_perigee_deg": 233.3074,
      "mean_anomaly_deg": 126.7743,
      "mean_motion_rev_day": 13.29336808
    },
    {
      "epoch": "2026-04-09T16:36:18.749088Z",
      "apogee_km": 1149.7293308501976,
      "perigee_km": 1148.801954844599,
      "latitude_deg": 3.3720236866184275e-05,
      "longitude_deg": 94.00447127074449,
      "height_km": 1150.0213104080246,
      "semi_major_axis_km": 7527.402642847398,
      "eccentricity": 6.16e-05,
      "inclination_deg": 49.9997,
      "raan_deg": 181.019,
      "arg_perigee_deg": 237.4934,
      "mean_anomaly_deg": 122.5879,
      "mean_motion_rev_day": 13.29336842
    },
    {
      "epoch": "2026-04-10T12:27:08.698752Z",
      "apogee_km": 1149.734464122993,
      "perigee_km": 1148.7965497706273,
      "latitude_deg": 1.1183970523354219e-05,
      "longitude_deg": 152.51513084344148,
      "height_km": 1150.0018100947348,
      "semi_major_axis_km": 7527.40250694681,
      "eccentricity": 6.23e-05,
      "inclination_deg": 49.9996,
      "raan_deg": 178.0529,
      "arg_perigee_deg": 240.6577,
      "mean_anomaly_deg": 119.4233,
      "mean_motion_rev_day": 13.29336878
    },
    {
      "epoch": "2026-04-11T20:55:46.797888Z",
      "apogee_km": 1149.74302509904,
      "perigee_km": 1148.7870450405862,
      "latitude_deg": -6.960093562594625e-06,
      "longitude_deg": 19.168873537638753,
      "height_km": 1149.9582654042804,
      "semi_major_axis_km": 7527.402035069813,
      "eccentricity": 6.35e-05,
      "inclination_deg": 49.9994,
      "raan_deg": 173.1992,
      "arg_perigee_deg": 247.0085,
      "mean_anomaly_deg": 113.072,
      "mean_motion_rev_day": 13.29337003
    },
    {
      "epoch": "2026-04-13T03:36:09.440928Z",
      "apogee_km": 1149.7557259136775,
      "perigee_km": 1148.7732494715037,
      "latitude_deg": 1.4150760347079284e-05,
      "longitude_deg": -86.76934901676081,
      "height_km": 1149.920236896322,
      "semi_major_axis_km": 7527.40148769259,
      "eccentricity": 6.526e-05,
      "inclination_deg": 49.9992,
      "raan_deg": 168.615,
      "arg_perigee_deg": 252.3186,
      "mean_anomaly_deg": 107.7615,
      "mean_motion_rev_day": 13.29337148
    }
  ]
}